{"type": "FeatureCollection", "features": [ {"type": "Feature", "properties": {"norad_id": 39155, "name": "COSMOS 2485 (747)", "group": "glo-ops", "lat": -18.124329867760718, "lon": 70.8316372246628, "alt_km": 19153.804071820574, "timestamp": "2025-12-24T18:55:56.329319+00:00", "meta": {"OBJECT_NAME": "COSMOS 2485 (747)", "OBJECT_ID": "2013-019A", "EPOCH": "2025-12-23T21:02:08.451744", "MEAN_MOTION": 2.13103232, "ECCENTRICITY": 0.00250068, "INCLINATION": 65.319, "RA_OF_ASC_NODE": 79.4928, "ARG_OF_PERICENTER": 230.5113, "MEAN_ANOMALY": 129.3147, "EPHEMERIS_TYPE": 0, "CLASSIFICATION_TYPE": "U", "NORAD_CAT_ID": 39155, "ELEMENT_SET_NO": 999, "REV_AT_EPOCH": 9854, "BSTAR": 0, "MEAN_MOTION_DOT": 2e-08, "MEAN_MOTION_DDOT": 0}, "tle": {"line1": "1 39155U 13019A   25357.87648671  .00000002  00000+0  00000+0 0  9996", "line2": "2 39155  65.3190  79.4928 0025006 230.5113 129.3147  2.13103232 98546"}}, "geometry": {"type": "Point", "coordinates": [70.8316372246628, -18.124329867760718]}}, {"type": "Feature", "properties": {"norad_id": 39620, "name": "COSMOS 2492 (754)", "group": "glo-ops", "lat": 10.640156534353947, "lon": -35.219714844534664, "alt_km": 19109.864096183133, "timestamp": "2025-12-24T18:55:56.329333+00:00", "meta": {"OBJECT_NAME": "COSMOS 2492 (754)", "OBJECT_ID": "2014-012A", "EPOCH": "2025-12-21T22:59:34.433088", "MEAN_MOTION": 2.13103396, "ECCENTRICITY": 0.00142426, "INCLINATION": 65.4026, "RA_OF_ASC_NODE": 319.9579, "ARG_OF_PERICENTER": 313.3292, "MEAN_ANOMALY": 46.5466, "EPHEMERIS_TYPE": 0, "CLASSIFICATION_TYPE": "U", "NORAD_CAT_ID": 39620, "ELEMENT_SET_NO": 999, "REV_AT_EPOCH": 9146, "BSTAR": 0, "MEAN_MOTION_DOT": -4.2e-07, "MEAN_MOTION_DDOT": 0}, "tle": {"line1": "1 39620U 14012A   25355.95803742 -.00000042  00000+0  00000+0 0  9991", "line2": "2 39620  65.4026 319.9579 0014242 313.3292  46.5466  2.13103396 91463"}}, "geometry": {"type": "Point", "coordinates": [-35.219714844534664, 10.640156534353947]}}, {"type": "Feature", "properties": {"norad_id": 40001, "name": "COSMOS 2500 (755)", "group": "glo-ops", "lat": -51.71022333395896, "lon": 175.16910672663855, "alt_km": 19116.99988698839, "timestamp": "2025-12-24T18:55:56.329351+00:00", "meta": {"OBJECT_NAME": "COSMOS 2500 (755)", "OBJECT_ID": "2014-032A", "EPOCH": "2025-12-21T04:35:55.026240", "MEAN_MOTION": 2.13106227, "ECCENTRICITY": 0.00077299, "INCLINATION": 65.3386, "RA_OF_ASC_NODE": 319.7453, "ARG_OF_PERICENTER": 219.3736, "MEAN_ANOMALY": 140.5635, "EPHEMERIS_TYPE": 0, "CLASSIFICATION_TYPE": "U", "NORAD_CAT_ID": 40001, "ELEMENT_SET_NO": 999, "REV_AT_EPOCH": 8966, "BSTAR": 0, "MEAN_MOTION_DOT": -4.7e-07, "MEAN_MOTION_DDOT": 0}, "tle": {"line1": "1 40001U 14032A   25355.19160910 -.00000047  00000+0  00000+0 0  9992", "line2": "2 40001  65.3386 319.7453 0007729 219.3736 140.5635  2.13106227 89663"}}, "geometry": {"type": "Point", "coordinates": [175.16910672663855, -51.71022333395896]}}, {"type": "Feature", "properties": {"norad_id": 40315, "name": "COSMOS 2501 (702K)", "group": "glo-ops", "lat": 35.3115994095805, "lon": -142.9908165180015, "alt_km": 19175.16402659334, "timestamp": "2025-12-24T18:55:56.329362+00:00", "meta": {"OBJECT_NAME": "COSMOS 2501 (702K)", "OBJECT_ID": "2014-075A", "EPOCH": "2025-12-19T02:31:27.452640", "MEAN_MOTION": 2.13101513, "ECCENTRICITY": 0.0020099, "INCLINATION": 63.6146, "RA_OF_ASC_NODE": 196.6046, "ARG_OF_PERICENTER": 204.1838, "MEAN_ANOMALY": 155.7988, "EPHEMERIS_TYPE": 0, "CLASSIFICATION_TYPE": "U", "NORAD_CAT_ID": 40315, "ELEMENT_SET_NO": 999, "REV_AT_EPOCH": 8601, "BSTAR": 0, "MEAN_MOTION_DOT": 1.06e-06, "MEAN_MOTION_DDOT": 0}, "tle": {"line1": "1 40315U 14075A   25353.10517885  .00000106  00000+0  00000+0 0  9998", "line2": "2 40315  63.6146 196.6046 0020099 204.1838 155.7988  2.13101513 86014"}}, "geometry": {"type": "Point", "coordinates": [-142.9908165180015, 35.3115994095805]}}, {"type": "Feature", "properties": {"norad_id": 41330, "name": "COSMOS 2514 (751)", "group": "glo-ops", "lat": 46.01440988822339, "lon": -12.32063130111196, "alt_km": 19153.506472185094, "timestamp": "2025-12-24T18:55:56.329374+00:00", "meta": {"OBJECT_NAME": "COSMOS 2514 (751)", "OBJECT_ID": "2016-008A", "EPOCH": "2025-12-23T18:45:46.770912", "MEAN_MOTION": 2.13102642, "ECCENTRICITY": 0.00116336, "INCLINATION": 65.1274, "RA_OF_ASC_NODE": 319.026, "ARG_OF_PERICENTER": 220.0869, "MEAN_ANOMALY": 139.8272, "EPHEMERIS_TYPE": 0, "CLASSIFICATION_TYPE": "U", "NORAD_CAT_ID": 41330, "ELEMENT_SET_NO": 999, "REV_AT_EPOCH": 7688, "BSTAR": 0, "MEAN_MOTION_DOT": -3.5e-07, "MEAN_MOTION_DDOT": 0}, "tle": {"line1": "1 41330U 16008A   25357.78179133 -.00000035  00000+0  00000+0 0  9994", "line2": "2 41330  65.1274 319.0260 0011633 220.0869 139.8272  2.13102642 76882"}}, "geometry": {"type": "Point", "coordinates": [-12.32063130111196, 46.01440988822339]}}, {"type": "Feature", "properties": {"norad_id": 42939, "name": "COSMOS 2522 (752)", "group": "glo-ops", "lat": 3.078520289438127, "lon": 16.32312066028953, "alt_km": 19119.036056774035, "timestamp": "2025-12-24T18:55:56.329385+00:00", "meta": {"OBJECT_NAME": "COSMOS 2522 (752)", "OBJECT_ID": "2017-055A", "EPOCH": "2025-12-24T02:08:41.637984", "MEAN_MOTION": 2.13102066, "ECCENTRICITY": 0.00062718, "INCLINATION": 64.0767, "RA_OF_ASC_NODE": 197.8423, "ARG_OF_PERICENTER": 223.2382, "MEAN_ANOMALY": 136.7706, "EPHEMERIS_TYPE": 0, "CLASSIFICATION_TYPE": "U", "NORAD_CAT_ID": 42939, "ELEMENT_SET_NO": 999, "REV_AT_EPOCH": 6424, "BSTAR": 0, "MEAN_MOTION_DOT": 9.8e-07, "MEAN_MOTION_DDOT": 0}, "tle": {"line1": "1 42939U 17055A   25358.08937081  .00000098  00000+0  00000+0 0  9999", "line2": "2 42939  64.0767 197.8423 0006271 223.2382 136.7706  2.13102066 64248"}}, "geometry": {"type": "Point", "coordinates": [16.32312066028953, 3.078520289438127]}}, {"type": "Feature", "properties": {"norad_id": 43508, "name": "COSMOS 2527 (756)", "group": "glo-ops", "lat": -24.014055305695518, "lon": -88.54250854816928, "alt_km": 19111.87666970442, "timestamp": "2025-12-24T18:55:56.329396+00:00", "meta": {"OBJECT_NAME": "COSMOS 2527 (756)", "OBJECT_ID": "2018-053A", "EPOCH": "2025-12-23T02:40:53.485824", "MEAN_MOTION": 2.13102391, "ECCENTRICITY": 0.00089977, "INCLINATION": 65.4775, "RA_OF_ASC_NODE": 79.785, "ARG_OF_PERICENTER": 227.5336, "MEAN_ANOMALY": 132.4355, "EPHEMERIS_TYPE": 0, "CLASSIFICATION_TYPE": "U", "NORAD_CAT_ID": 43508, "ELEMENT_SET_NO": 999, "REV_AT_EPOCH": 5852, "BSTAR": 0, "MEAN_MOTION_DOT": 1e-08, "MEAN_MOTION_DDOT": 0}, "tle": {"line1": "1 43508U 18053A   25357.11173016  .00000001  00000+0  00000+0 0  9998", "line2": "2 43508  65.4775  79.7850 0008997 227.5336 132.4355  2.13102391 58528"}}, "geometry": {"type": "Point", "coordinates": [-88.54250854816928, -24.014055305695518]}}, {"type": "Feature", "properties": {"norad_id": 43687, "name": "COSMOS 2529 (757)", "group": "glo-ops", "lat": 42.13830326315654, "lon": -7.368089313496587, "alt_km": 19134.278752824786, "timestamp": "2025-12-24T18:55:56.329407+00:00", "meta": {"OBJECT_NAME": "COSMOS 2529 (757)", "OBJECT_ID": "2018-086A", "EPOCH": "2025-12-23T05:01:04.327104", "MEAN_MOTION": 2.13102131, "ECCENTRICITY": 0.0006897, "INCLINATION": 64.2927, "RA_OF_ASC_NODE": 198.5346, "ARG_OF_PERICENTER": 253.659, "MEAN_ANOMALY": 106.3281, "EPHEMERIS_TYPE": 0, "CLASSIFICATION_TYPE": "U", "NORAD_CAT_ID": 43687, "ELEMENT_SET_NO": 999, "REV_AT_EPOCH": 5553, "BSTAR": 0, "MEAN_MOTION_DOT": 9.5e-07, "MEAN_MOTION_DDOT": 0}, "tle": {"line1": "1 43687U 18086A   25357.20907786  .00000095  00000+0  00000+0 0  9994", "line2": "2 43687  64.2927 198.5346 0006897 253.6590 106.3281  2.13102131 55539"}}, "geometry": {"type": "Point", "coordinates": [-7.368089313496587, 42.13830326315654]}}, {"type": "Feature", "properties": {"norad_id": 44299, "name": "COSMOS 2534 (758)", "group": "glo-ops", "lat": -64.09414642431035, "lon": 100.00778063365496, "alt_km": 19115.518024128716, "timestamp": "2025-12-24T18:55:56.329418+00:00", "meta": {"OBJECT_NAME": "COSMOS 2534 (758)", "OBJECT_ID": "2019-030A", "EPOCH": "2025-12-24T03:52:14.937600", "MEAN_MOTION": 2.13102191, "ECCENTRICITY": 0.00085971, "INCLINATION": 64.3662, "RA_OF_ASC_NODE": 198.5079, "ARG_OF_PERICENTER": 283.6548, "MEAN_ANOMALY": 221.2586, "EPHEMERIS_TYPE": 0, "CLASSIFICATION_TYPE": "U", "NORAD_CAT_ID": 44299, "ELEMENT_SET_NO": 999, "REV_AT_EPOCH": 5119, "BSTAR": 0, "MEAN_MOTION_DOT": 9.8e-07, "MEAN_MOTION_DDOT": 0}, "tle": {"line1": "1 44299U 19030A   25358.16128400  .00000098  00000+0  00000+0 0  9991", "line2": "2 44299  64.3662 198.5079 0008597 283.6548 221.2586  2.13102191 51193"}}, "geometry": {"type": "Point", "coordinates": [100.00778063365496, -64.09414642431035]}}, {"type": "Feature", "properties": {"norad_id": 44850, "name": "COSMOS 2544 (759)", "group": "glo-ops", "lat": -58.166491606562644, "lon": -53.16210601207578, "alt_km": 19099.63931951415, "timestamp": "2025-12-24T18:55:56.329429+00:00", "meta": {"OBJECT_NAME": "COSMOS 2544 (759)", "OBJECT_ID": "2019-088A", "EPOCH": "2025-12-23T01:21:04.162752", "MEAN_MOTION": 2.13102153, "ECCENTRICITY": 0.0014323, "INCLINATION": 65.465, "RA_OF_ASC_NODE": 79.6136, "ARG_OF_PERICENTER": 250.3939, "MEAN_ANOMALY": 109.4967, "EPHEMERIS_TYPE": 0, "CLASSIFICATION_TYPE": "U", "NORAD_CAT_ID": 44850, "ELEMENT_SET_NO": 999, "REV_AT_EPOCH": 4696, "BSTAR": 0, "MEAN_MOTION_DOT": 1e-08, "MEAN_MOTION_DDOT": 0}, "tle": {"line1": "1 44850U 19088A   25357.05629818  .00000001  00000+0  00000+0 0  9997", "line2": "2 44850  65.4650  79.6136 0014323 250.3939 109.4967  2.13102153 46964"}}, "geometry": {"type": "Point", "coordinates": [-53.16210601207578, -58.166491606562644]}}]}